STARLINK-37461          
1 69173U 26111AB  26162.25002315 -.02861403  00000+0 -54284-1 0  9991
2 69173  53.1593 181.8090 0001065  90.7535 351.3842 15.51696563  4593
STARLINK-37333          
1 69174U 26111AC  26162.13297513  .00186583  00000+0  10528-2 0  9994
2 69174  53.1582 181.9404 0001715  45.3449 314.7712 15.78103374  3303
STARLINK-37385          
1 69175U 26111AD  26162.25002315 -.02193166  00000+0 -38871-1 0  9991
2 69175  53.1594 181.7286 0000657  84.1815  37.2924 15.53163201  4597
STARLINK-37414          
1 69176U 26111AE  26162.12860507  .00082254  00000+0  47271-3 0  9990
2 69176  53.1586 181.9102 0001510 116.5831 243.5346 15.78069142  3309
STRIX-7                 
1 69177U 26112A   26162.25075613  .00002520  00000+0  20907-3 0  9997
2 69177  44.9064 223.6284 0023722  13.3770 346.7726 15.01407253  2985
SHENZHOU-23 (SZ-23)     
1 69180U 26113A   26162.21782796  .00020697  00000+0  24653-3 0  9992
2 69180  41.4694 358.3237 0008197  28.9315 331.1976 15.60563857292445
STARLINK-37380          
1 69182U 26114A   26162.20291829  .00228918  00000+0  12844-2 0  9990
2 69182  53.1588 232.3753 0001299  52.1308 307.9831 15.78104745  3829
STARLINK-37089          
1 69183U 26114B   26162.26532134  .00129281  00000+0  73641-3 0  9990
2 69183  53.1587 232.0531 0001759  63.1969 296.9232 15.78078217  3833
STARLINK-37428          
1 69184U 26114C   26162.20057877  .00187888  00000+0  10597-2 0  9998
2 69184  53.1590 232.3599 0001468  43.1138 316.9998 15.78110676  3825
STARLINK-37237          
1 69185U 26114D   26162.19782604  .00158771  00000+0  89955-3 0  9994
2 69185  53.1594 232.3410 0001069  77.6133 282.5008 15.78099696  3824
STARLINK-37365          
1 69186U 26114E   26162.19813825  .00208262  00000+0  11723-2 0  9993
2 69186  53.1592 232.3425 0001228  39.8943 320.2168 15.78092279  3822
STARLINK-37209          
1 69187U 26114F   26162.19736515  .00168843  00000+0  95471-3 0  9997
2 69187  53.1593 232.3372 0000996  76.8569 283.2564 15.78112245  3825
STARLINK-37359          
1 69188U 26114G   26162.19692240  .00247039  00000+0  13805-2 0  9999
2 69188  53.1594 232.3341 0001334  69.9559 290.1606 15.78141244  3827
STARLINK-37440          
1 69189U 26114H   26162.21932308  .00549306  00000+0  25819-2 0  9995
2 69189  53.1595 231.7432 0002638 182.8578 177.2430 15.81139139  3832
STARLINK-37282          
1 69190U 26114J   26162.25002315 -.00005073  00000+0 -25392-4 0  9995
2 69190  53.1603 231.9931 0001114  83.4529 255.1558 15.78052014  3862
STARLINK-37422          
1 69191U 26114K   26162.24661386  .00161166  00000+0  80369-3 0  9992
2 69191  53.1589 231.9271 0001554  63.7677 296.3506 15.80906349  3835
STARLINK-37424          
1 69192U 26114L   26162.25391517  .00239320  00000+0  13397-2 0  9994
2 69192  53.1595 231.9756 0001350  49.5299 310.5840 15.78124567  3838
STARLINK-36666          
1 69193U 26114M   26162.24683529  .00202532  00000+0  10046-2 0  9994
2 69193  53.1588 231.9285 0001652  57.2518 302.8663 15.80897805  3835
STARLINK-37355          
1 69194U 26114N   26161.92997900  .00245670  00000+0  12083-2 0  9993
2 69194  53.1586 233.5082 0001058  64.5712 295.5420 15.80960175  3788
STARLINK-37166          
1 69195U 26114P   26162.24458712  .00120664  00000+0  60593-3 0  9998
2 69195  53.1588 231.9136 0002046  42.0410 318.0770 15.80887792  3835
STARLINK-36933          
1 69196U 26114Q   26162.24533144  .00266662  00000+0  13083-2 0  9992
2 69196  53.1588 231.9186 0000994  73.4242 286.6890 15.80955299  3833
STARLINK-37419          
1 69197U 26114R   26162.24382949  .00197675  00000+0  97867-3 0  9998
2 69197  53.1586 231.9086 0001399  43.4504 316.6629 15.80953401  3836
STARLINK-37321          
1 69198U 26114S   26162.24308323  .00183825  00000+0  91288-3 0  9996
2 69198  53.1590 231.9034 0001892  26.9560 333.1561 15.80927479  3836
STARLINK-37406          
1 69199U 26114T   26162.24233241  .00202070  00000+0  10023-2 0  9994
2 69199  53.1585 231.8983 0001672  46.0827 314.0334 15.80899406  3832
STARLINK-37761          
1 69200U 26114U   26161.73581709 -.00397481  00000+0 -21196-2 0  9991
2 69200  53.1585 234.4280 0004054 299.9066  60.1554 15.80693581  3755
STARLINK-37754          
1 69201U 26114V   26162.24063668  .00187137  00000+0  92911-3 0  9995
2 69201  53.1584 231.8870 0001238  52.8563 307.2573 15.80923082  3837
STARLINK-37649          
1 69202U 26114W   26162.24008293  .00261142  00000+0  12820-2 0  9998
2 69202  53.1584 231.8837 0002192  33.7998 326.3164 15.80956533  3836
STARLINK-37604          
1 69203U 26114X   26162.23933139  .00234057  00000+0  11535-2 0  9991
2 69203  53.1582 231.8792 0001624  36.1454 323.9678 15.80948391  3834
STARLINK-37669          
1 69204U 26114Y   26162.23857976  .00191698  00000+0  95073-3 0  9999
2 69204  53.1584 231.8734 0001411  42.1050 318.0081 15.80933024  3836
STARLINK-37691          
1 69205U 26114Z   26162.24243540  .00149379  00000+0  84755-3 0  9991
2 69205  53.1592 231.8984 0001416  60.2419 299.8743 15.78098235  3832
