OBJECT_NAME,OBJECT_ID,EPOCH,MEAN_MOTION,ECCENTRICITY,INCLINATION,RA_OF_ASC_NODE,ARG_OF_PERICENTER,MEAN_ANOMALY,EPHEMERIS_TYPE,CLASSIFICATION_TYPE,NORAD_CAT_ID,ELEMENT_SET_NO,REV_AT_EPOCH,BSTAR,MEAN_MOTION_DOT,MEAN_MOTION_DDOT
STARLINK-37461,2026-111AB,2026-06-11T06:00:02.000160,15.51696563,.00010656,53.1593,181.8090,90.7535,351.3842,0,U,69173,999,459,-.54284488E-1,-.2861403E-1,0
STARLINK-37333,2026-111AC,2026-06-11T03:11:29.051232,15.78103374,.00017158,53.1582,181.9404,45.3449,314.7712,0,U,69174,999,330,.10528211E-2,.186583E-2,0
STARLINK-37385,2026-111AD,2026-06-11T06:00:02.000160,15.53163201,.00006571,53.1594,181.7286,84.1815,37.2924,0,U,69175,999,459,-.38870571E-1,-.2193166E-1,0
STARLINK-37414,2026-111AE,2026-06-11T03:05:11.478048,15.78069142,.00015101,53.1586,181.9102,116.5831,243.5346,0,U,69176,999,330,.47271153E-3,.82254E-3,0
STRIX-7,2026-112A,2026-06-11T06:01:05.329632,15.01407253,.00237228,44.9064,223.6284,13.3770,346.7726,0,U,69177,999,298,.2090711E-3,.252E-4,0
SHENZHOU-23 (SZ-23),2026-113A,2026-06-11T05:13:40.335744,15.60563857,.00081971,41.4694,358.3237,28.9315,331.1976,0,U,69180,999,29244,.24653477E-3,.20697E-3,0
STARLINK-37380,2026-114A,2026-06-11T04:52:12.140256,15.78104745,.00012991,53.1588,232.3753,52.1308,307.9831,0,U,69182,999,382,.12843589E-2,.228918E-2,0
STARLINK-37089,2026-114B,2026-06-11T06:22:03.763776,15.78078217,.00017593,53.1587,232.0531,63.1969,296.9232,0,U,69183,999,383,.73640975E-3,.129281E-2,0
STARLINK-37428,2026-114C,2026-06-11T04:48:50.005728,15.78110676,.00014683,53.1590,232.3599,43.1138,316.9998,0,U,69184,999,382,.10596605E-2,.187888E-2,0
STARLINK-37237,2026-114D,2026-06-11T04:44:52.169856,15.78099696,.00010697,53.1594,232.3410,77.6133,282.5008,0,U,69185,999,382,.89955236E-3,.158771E-2,0
STARLINK-37365,2026-114E,2026-06-11T04:45:19.144800,15.78092279,.00012286,53.1592,232.3425,39.8943,320.2168,0,U,69186,999,382,.11723134E-2,.208262E-2,0
STARLINK-37209,2026-114F,2026-06-11T04:44:12.348960,15.78112245,.0000996,53.1593,232.3372,76.8569,283.2564,0,U,69187,999,382,.95471076E-3,.168843E-2,0
STARLINK-37359,2026-114G,2026-06-11T04:43:34.095360,15.78141244,.00013349,53.1594,232.3341,69.9559,290.1606,0,U,69188,999,382,.13805205E-2,.247039E-2,0
STARLINK-37440,2026-114H,2026-06-11T05:15:49.514112,15.81139139,.00026388,53.1595,231.7432,182.8578,177.2430,0,U,69189,999,383,.25818692E-2,.549306E-2,0
STARLINK-37282,2026-114J,2026-06-11T06:00:02.000160,15.78052014,.00011142,53.1603,231.9931,83.4529,255.1558,0,U,69190,999,386,-.2539217E-4,-.5073E-4,0
STARLINK-37422,2026-114K,2026-06-11T05:55:07.437504,15.80906349,.0001554,53.1589,231.9271,63.7677,296.3506,0,U,69191,999,383,.80368799E-3,.161166E-2,0
STARLINK-37424,2026-114L,2026-06-11T06:05:38.270688,15.78124567,.00013503,53.1595,231.9756,49.5299,310.5840,0,U,69192,999,383,.13397198E-2,.23932E-2,0
STARLINK-36666,2026-114M,2026-06-11T05:55:26.569056,15.80897805,.00016523,53.1588,231.9285,57.2518,302.8663,0,U,69193,999,383,.1004623E-2,.202532E-2,0
STARLINK-37355,2026-114N,2026-06-10T22:19:10.185600,15.80960175,.00010581,53.1586,233.5082,64.5712,295.5420,0,U,69194,999,378,.12082813E-2,.24567E-2,0
STARLINK-37166,2026-114P,2026-06-11T05:52:12.327168,15.80887792,.00020465,53.1588,231.9136,42.0410,318.0770,0,U,69195,999,383,.6059318E-3,.120664E-2,0
STARLINK-36933,2026-114Q,2026-06-11T05:53:16.636416,15.80955299,.00009942,53.1588,231.9186,73.4242,286.6890,0,U,69196,999,383,.13083078E-2,.266662E-2,0
STARLINK-37419,2026-114R,2026-06-11T05:51:06.867936,15.80953401,.0001399,53.1586,231.9086,43.4504,316.6629,0,U,69197,999,383,.97866797E-3,.197675E-2,0
STARLINK-37321,2026-114S,2026-06-11T05:50:02.391072,15.80927479,.00018923,53.1590,231.9034,26.9560,333.1561,0,U,69198,999,383,.91288009E-3,.183825E-2,0
STARLINK-37406,2026-114T,2026-06-11T05:48:57.520224,15.80899406,.00016725,53.1585,231.8983,46.0827,314.0334,0,U,69199,999,383,.1002317E-2,.20207E-2,0
STARLINK-37761,2026-114U,2026-06-10T17:39:34.596576,15.80693581,.00040541,53.1585,234.4280,299.9066,60.1554,0,U,69200,999,375,-.21196161E-2,-.397481E-2,0
STARLINK-37754,2026-114V,2026-06-11T05:46:31.009152,15.80923082,.00012385,53.1584,231.8870,52.8563,307.2573,0,U,69201,999,383,.92911286E-3,.187137E-2,0
STARLINK-37649,2026-114W,2026-06-11T05:45:43.165152,15.80956533,.00021925,53.1584,231.8837,33.7998,326.3164,0,U,69202,999,383,.12820316E-2,.261142E-2,0
STARLINK-37604,2026-114X,2026-06-11T05:44:38.232096,15.80948391,.00016241,53.1582,231.8792,36.1454,323.9678,0,U,69203,999,383,.11535129E-2,.234057E-2,0
STARLINK-37669,2026-114Y,2026-06-11T05:43:33.291264,15.80933024,.00014119,53.1584,231.8734,42.1050,318.0081,0,U,69204,999,383,.95073344E-3,.191698E-2,0
STARLINK-37691,2026-114Z,2026-06-11T05:49:06.418560,15.78098235,.0001416,53.1592,231.8984,60.2419,299.8743,0,U,69205,999,383,.84754672E-3,.149379E-2,0
